QIANFAN-81              
1 63167U 25046J   25287.31216171  .00000166  00000+0  23810-3 0  9995
2 63167  88.9796 326.0238 0012624 295.3921  64.5923 13.50986188 39462
QIANFAN-82              
1 63168U 25046K   25287.34530531  .00000145  00000+0  20658-3 0  9992
2 63168  88.9797 326.0640 0010905 305.1930  54.8199 13.50968618 39455
QIANFAN-83              
1 63169U 25046L   25287.33727005  .00000164  00000+0  19676-3 0  9995
2 63169  88.9797 325.9578 0011974 291.3187  68.6692 13.61962908 39517
QIANFAN-84              
1 63170U 25046M   25287.29960385  .00000104  00000+0  14236-3 0  9993
2 63170  88.9797 326.2017 0013790 300.2007  59.7778 13.50986086 39371
QIANFAN-85              
1 63171U 25046N   25287.29593688  .00000166  00000+0  23887-3 0  9992
2 63171  88.9796 326.0741 0011224 303.9004  56.1079 13.50971457 39449
QIANFAN-86              
1 63172U 25046P   25287.30418233  .00000154  00000+0  21960-3 0  9994
2 63172  88.9798 325.9339 0009183 310.1047  49.9298 13.50968489 39524
QIANFAN-87              
1 63173U 25046Q   25282.68330257  .00000145  00000+0  20656-3 0  9991
2 63173  88.9804 326.5243 0010016 319.1660  40.8739 13.50979787 38837
QIANFAN-88              
1 63174U 25046R   25283.51451471  .00000149  00000+0  21299-3 0  9995
2 63174  88.9800 326.3915 0010557 325.4993  34.5472 13.50973338 38972
